{
  "58744": {
    "noradId": "58744",
    "tle": [
      "1 58744C 24005S   25331.15465278 -.00005061  00000+0 -18337-3 0  3319",
      "2 58744  43.0031 293.3736 0001457 271.3838  36.5576 15.27573023    11"
    ]
  },
  "58745": {
    "noradId": "58745",
    "tle": [
      "1 58745C 24005T   25331.15673611 -.00005333  00000+0 -39351-3 0  3313",
      "2 58745  43.0029  58.6779 0001519 270.3077 284.1498 15.02537429    18"
    ]
  },
  "58746": {
    "noradId": "58746",
    "tle": [
      "1 58746C 24005U   25331.15256944  .00011838  00000+0  42905-3 0  3314",
      "2 58746  43.0011 286.5937 0001356 272.2083 329.4098 15.27544510    10"
    ]
  },
  "58747": {
    "noradId": "58747",
    "tle": [
      "1 58747C 24005V   25331.15465278  .00015039  00000+0  11100-2 0  3316",
      "2 58747  43.0026  58.6023 0001573 265.0870 314.1633 15.02509208    10"
    ]
  },
  "58748": {
    "noradId": "58748",
    "tle": [
      "1 58748C 24005W   25331.15048611 -.00062937  00000+0 -46444-2 0  3315",
      "2 58748  43.0026  58.6659 0001412 272.0058 266.7004 15.02593594    19"
    ]
  },
  "58749": {
    "noradId": "58749",
    "tle": [
      "1 58749C 24005X   25331.15326389 -.00060440  00000+0 -44591-2 0  3315",
      "2 58749  43.0027  58.4555 0001309 270.4803 337.3866 15.02600016    18"
    ]
  },
  "58750": {
    "noradId": "58750",
    "tle": [
      "1 58750C 24005Y   25331.15673611  .00015561  00000+0  11485-2 0  3318",
      "2 58750  43.0025  58.5447 0001516 263.9080 344.6515 15.02510880    14"
    ]
  },
  "58765": {
    "noradId": "58765",
    "tle": [
      "1 58765C 24011A   25331.15534722 -.00006018  00000+0 -20282-3 0  3315",
      "2 58765  53.1598 129.9768 0001295  87.0921 188.9457 15.30199594    19"
    ]
  },
  "58766": {
    "noradId": "58766",
    "tle": [
      "1 58766C 24011B   25331.15465278 -.00004876  00000+0 -16432-3 0  3317",
      "2 58766  53.1595 127.9683 0001237  87.3393 135.4217 15.30198225    14"
    ]
  },
  "58767": {
    "noradId": "58767",
    "tle": [
      "1 58767C 24011C   25331.15326389 -.00010016  00000+0 -33760-3 0  3313",
      "2 58767  53.1588 129.9187 0001248  84.4965 214.9644 15.30199966    13"
    ]
  },
  "58768": {
    "noradId": "58768",
    "tle": [
      "1 58768C 24011D   25331.15812500  .00116420  00000+0  38185-2 0  3318",
      "2 58768  53.1517 138.7302 0005825 224.9644 244.2948 15.30936314    12"
    ]
  },
  "58769": {
    "noradId": "58769",
    "tle": [
      "1 58769C 24011E   25331.15326389 -.00006445  00000+0 -21722-3 0  3311",
      "2 58769  53.1586 129.8846 0001203  86.5354 230.3768 15.30195920    15"
    ]
  },
  "58770": {
    "noradId": "58770",
    "tle": [
      "1 58770C 24011F   25331.15465278 -.00005155  00000+0 -17373-3 0  3318",
      "2 58770  53.1582 129.8432 0001225  89.7788 252.2340 15.30198097    11"
    ]
  },
  "58771": {
    "noradId": "58771",
    "tle": [
      "1 58771C 24011G   25331.15048611 -.00004137  00000+0 -13940-3 0  3312",
      "2 58771  53.1600 127.8707 0001348  80.5435 177.4175 15.30200074    13"
    ]
  },
  "58772": {
    "noradId": "58772",
    "tle": [
      "1 58772C 24011H   25331.15604167  .00001358  00000+0  45751-4 0  3313",
      "2 58772  53.1589 129.9352 0001255  84.5797 212.7364 15.30193506    15"
    ]
  },
  "58773": {
    "noradId": "58773",
    "tle": [
      "1 58773C 24011J   25331.15187500 -.00007808  00000+0 -26314-3 0  3312",
      "2 58773  53.1600 130.0250 0001250  86.6694 152.7815 15.30202466    14"
    ]
  },
  "58774": {
    "noradId": "58774",
    "tle": [
      "1 58774C 24011K   25331.15048611  .00000489  00000+0  16486-4 0  3318",
      "2 58774  53.1599 130.0943 0001278  84.9130 111.9931 15.30192907    11"
    ]
  },
  "58775": {
    "noradId": "58775",
    "tle": [
      "1 58775C 24011L   25331.15465278  .00006027  00000+0  20315-3 0  3310",
      "2 58775  53.1575 129.7832 0001224  90.6826 280.4373 15.30180789    12"
    ]
  },
  "58776": {
    "noradId": "58776",
    "tle": [
      "1 58776C 24011M   25331.15673611 -.00001123  00000+0 -37833-4 0  3311",
      "2 58776  53.1589 130.1432 0001320  81.3029 109.3382 15.30197550    12"
    ]
  },
  "58777": {
    "noradId": "58777",
    "tle": [
      "1 58777C 24011N   25331.15118056 -.00005245  00000+0 -17680-3 0  3315",
      "2 58777  53.1591  39.8198 0001180  85.7009 142.8523 15.30194069    11"
    ]
  },
  "58778": {
    "noradId": "58778",
    "tle": [
      "1 58778C 24011P   25331.15673611 -.00005090  00000+0 -17154-3 0  3313",
      "2 58778  53.1572 130.2790 0001160  86.9158  33.9372 15.30198236    13"
    ]
  },
  "58779": {
    "noradId": "58779",
    "tle": [
      "1 58779C 24011Q   25331.15256944  .00001426  00000+0  48066-4 0  3314",
      "2 58779  53.1593 130.1389 0001243  84.2170  95.0915 15.30194259    10"
    ]
  },
  "58781": {
    "noradId": "58781",
    "tle": [
      "1 58781C 24011S   25331.15256944 -.00002375  00000+0 -80056-4 0  3318",
      "2 58781  53.1598 130.1042 0001267  85.6487 111.1135 15.30195633    17"
    ]
  },
  "58782": {
    "noradId": "58782",
    "tle": [
      "1 58782C 24011T   25331.15395833  .00542350  00000+0  11975-2 0  3312",
      "2 58782  53.1392 343.6244 0016523  35.3512 351.2149 15.96491493    14"
    ]
  },
  "58783": {
    "noradId": "58783",
    "tle": [
      "1 58783C 24011U   25331.15534722  .00012090  00000+0  40752-3 0  3314",
      "2 58783  53.1578 114.3919 0001377  84.0260 297.2877 15.30176364    17"
    ]
  },
  "58784": {
    "noradId": "58784",
    "tle": [
      "1 58784C 24011V   25331.15187500  .00006874  00000+0  23164-3 0  3314",
      "2 58784  53.1600 130.0370 0001283  84.3155 143.5071 15.30188850    14"
    ]
  },
  "58785": {
    "noradId": "58785",
    "tle": [
      "1 58785C 24011W   25331.15465278 -.00003856  00000+0 -12993-3 0  3313",
      "2 58785  53.1597  27.5773 0001246  88.1028 220.1974 15.30200978    17"
    ]
  },
  "58786": {
    "noradId": "58786",
    "tle": [
      "1 58786C 24011X   25331.14979167 -.00012809  00000+0 -43168-3 0  3316",
      "2 58786  53.1592 127.9917 0001164  93.9299  96.2211 15.30207505    10"
    ]
  },
  "58787": {
    "noradId": "58787",
    "tle": [
      "1 58787C 24012A   25331.15465278 -.00013234  00000+0 -47936-3 0  3312",
      "2 58787  43.0018  23.9527 0001406 265.8641 281.2032 15.27590778    14"
    ]
  },
  "58788": {
    "noradId": "58788",
    "tle": [
      "1 58788C 24012B   25331.15395833  .00015215  00000+0  55168-3 0  3317",
      "2 58788  42.9995  24.6929 0001370 269.7630 322.3289 15.27528756    10"
    ]
  },
  "58789": {
    "noradId": "58789",
    "tle": [
      "1 58789C 24012C   25331.15534722 -.00021037  00000+0 -76189-3 0  3317",
      "2 58789  43.0038  24.1583 0001328 266.3719 192.5382 15.27603040    17"
    ]
  },
  "58790": {
    "noradId": "58790",
    "tle": [
      "1 58790C 24012D   25331.15465278 -.00060907  00000+0 -22048-2 0  3311",
      "2 58790  42.9997  24.6737 0001184 263.8645 338.9185 15.27658372    12"
    ]
  },
  "58791": {
    "noradId": "58791",
    "tle": [
      "1 58791C 24012E   25331.15395833 -.00032894  00000+0 -11910-2 0  3311",
      "2 58791  43.0036  24.1604 0000794 268.9124 189.3839 15.27622735    19"
    ]
  },
  "58793": {
    "noradId": "58793",
    "tle": [
      "1 58793C 24012G   25331.15534722 -.00017453  00000+0 -63212-3 0  3312",
      "2 58793  43.0033  24.0772 0001224 265.6580 228.6323 15.27596697    14"
    ]
  },
  "58794": {
    "noradId": "58794",
    "tle": [
      "1 58794C 24012H   25331.15326389 -.00056685  00000+0 -20520-2 0  3315",
      "2 58794  42.9997  24.6433 0001012 272.0459 337.2402 15.27654131    17"
    ]
  },
  "58795": {
    "noradId": "58795",
    "tle": [
      "1 58795C 24012J   25331.15118056 -.00010267  00000+0 -37190-3 0  3314",
      "2 58795  43.0034  24.1345 0001283 265.3781 191.8332 15.27586366    12"
    ]
  },
  "58796": {
    "noradId": "58796",
    "tle": [
      "1 58796C 24012K   25331.15465278 -.00026444  00000+0 -95786-3 0  3315",
      "2 58796  43.0011  24.7379 0001406 264.1871 310.3830 15.27602519    15"
    ]
  },
  "58797": {
    "noradId": "58797",
    "tle": [
      "1 58797C 24012L   25331.15048611 -.00001110  00000+0 -40212-4 0  3312",
      "2 58797  43.0036  24.2569 0001455 264.0069 139.8436 15.27573949    11"
    ]
  },
  "58798": {
    "noradId": "58798",
    "tle": [
      "1 58798C 24012M   25331.14979167 -.00026478  00000+0 -95904-3 0  3312",
      "2 58798  43.0036  24.3116 0001513 269.5387 109.2585 15.27604058    11"
    ]
  },
  "58800": {
    "noradId": "58800",
    "tle": [
      "1 58800C 24012P   25331.15326389 -.00011580  00000+0 -41949-3 0  3317",
      "2 58800  43.0028  24.0368 0001492 265.1527 238.9127 15.27585799    18"
    ]
  },
  "58801": {
    "noradId": "58801",
    "tle": [
      "1 58801C 24012Q   25331.15604167 -.00022129  00000+0 -80148-3 0  3316",
      "2 58801  43.0032  24.3613 0001456 263.0986 114.7609 15.27601615    18"
    ]
  },
  "58803": {
    "noradId": "58803",
    "tle": [
      "1 58803C 24012S   25331.15395833 -.00024034  00000+0 -87061-3 0  3313",
      "2 58803  43.0018  24.5050 0001718 269.4093  40.3774 15.27598166    14"
    ]
  },
  "58804": {
    "noradId": "58804",
    "tle": [
      "1 58804C 24012T   25331.15187500 -.00013463  00000+0 -48758-3 0  3318",
      "2 58804  43.0031  24.4354 0001823 262.8593  70.8248 15.27593358    17"
    ]
  },
  "58806": {
    "noradId": "58806",
    "tle": [
      "1 58806C 24012V   25331.14979167 -.00028085  00000+0 -10172-2 0  3311",
      "2 58806  43.0010  24.4755 0001457 261.9742  46.1044 15.27609216    11"
    ]
  },
  "58807": {
    "noradId": "58807",
    "tle": [
      "1 58807C 24012W   25331.15187500 -.00018972  00000+0 -68724-3 0  3316",
      "2 58807  43.0014  23.9443 0001270 258.6748 280.1922 15.27594162    14"
    ]
  }
}